{"fetched_at":"2026-07-12T17:32:37.409Z","source":"https://celestrak.org/NORAD/elements/gp.php?NAME=CENTAURI&FORMAT=JSON","constellation":"myriota","records":[{"OBJECT_NAME":"CENTAURI-1","OBJECT_ID":"2018-099BD","EPOCH":"2026-07-12T01:58:03.280224","CLASSIFICATION_TYPE":"U","MEAN_MOTION":15.16606332,"ECCENTRICITY":0.00127512,"INCLINATION":97.4213,"RA_OF_ASC_NODE":244.2684,"ARG_OF_PERICENTER":236.7539,"MEAN_ANOMALY":123.2473,"EPHEMERIS_TYPE":0,"NORAD_CAT_ID":43809,"ELEMENT_SET_NO":999,"REV_AT_EPOCH":41627,"BSTAR":0.00017764877,"MEAN_MOTION_DOT":0.00003411,"MEAN_MOTION_DDOT":0},{"OBJECT_NAME":"CENTAURI-6","OBJECT_ID":"2024-066K","EPOCH":"2026-07-12T06:37:22.036800","CLASSIFICATION_TYPE":"U","MEAN_MOTION":15.06018088,"ECCENTRICITY":0.0001528,"INCLINATION":45.6058,"RA_OF_ASC_NODE":123.4499,"ARG_OF_PERICENTER":245.6078,"MEAN_ANOMALY":114.4647,"EPHEMERIS_TYPE":0,"NORAD_CAT_ID":59451,"ELEMENT_SET_NO":999,"REV_AT_EPOCH":12390,"BSTAR":0.00019382,"MEAN_MOTION_DOT":0.00002625,"MEAN_MOTION_DDOT":0},{"OBJECT_NAME":"CENTAURI-7","OBJECT_ID":"2025-009DD","EPOCH":"2026-07-12T04:17:42.975168","CLASSIFICATION_TYPE":"U","MEAN_MOTION":14.97962859,"ECCENTRICITY":0.00028633,"INCLINATION":97.7102,"RA_OF_ASC_NODE":273.137,"ARG_OF_PERICENTER":108.0493,"MEAN_ANOMALY":252.1042,"EPHEMERIS_TYPE":0,"NORAD_CAT_ID":62708,"ELEMENT_SET_NO":999,"REV_AT_EPOCH":8120,"BSTAR":0.00021642782,"MEAN_MOTION_DOT":0.00002495,"MEAN_MOTION_DDOT":0},{"OBJECT_NAME":"CENTAURI-8","OBJECT_ID":"2025-009DK","EPOCH":"2026-07-12T00:10:17.454144","CLASSIFICATION_TYPE":"U","MEAN_MOTION":14.97916681,"ECCENTRICITY":0.00025562,"INCLINATION":97.7043,"RA_OF_ASC_NODE":272.7909,"ARG_OF_PERICENTER":80.2937,"MEAN_ANOMALY":279.8574,"EPHEMERIS_TYPE":0,"NORAD_CAT_ID":62714,"ELEMENT_SET_NO":999,"REV_AT_EPOCH":8119,"BSTAR":0.00013106474,"MEAN_MOTION_DOT":0.00001486,"MEAN_MOTION_DDOT":0}]}
