CENTAURI-1              
1 43809U 18099BD  26193.08198241  .00003411  00000+0  17765-3 0  9992
2 43809  97.4213 244.2684 0012751 236.7539 123.2473 15.16606332416278
CENTAURI-6              
1 59451U 24066K   26193.27594951  .00002625  00000+0  19382-3 0  9995
2 59451  45.6058 123.4499 0001528 245.6078 114.4647 15.06018088123903
CENTAURI-7              
1 62708U 25009DD  26193.17896962  .00002495  00000+0  21643-3 0  9996
2 62708  97.7102 273.1370 0002863 108.0493 252.1042 14.97962859 81205
CENTAURI-8              
1 62714U 25009DK  26193.00714646  .00001486  00000+0  13106-3 0  9997
2 62714  97.7043 272.7909 0002556  80.2937 279.8574 14.97916681 81198
